SL-8 R/B
1 11574U 79089B   26109.80591502  .00000165  00000+0  57772-4 0  9992
2 11574  74.0712  14.9322 0015883 180.4853 179.6291 14.42376483442036
SL-14 R/B
1 11672U 80005B   26109.80072374  .00000399  00000+0  37699-4 0  9997
2 11672  82.5117 268.2248 0016417  31.3152 328.9041 14.90976075482615
SL-8 R/B
1 12139U 81003B   26109.83686169  .00014153  00000+0  35137-3 0  9998
2 12139  82.9373 251.9197 0257078  35.6701 326.1404 15.12674817320899
SL-3 R/B
1 12465U 81046B   26109.58770303  .00011802  00000+0  26569-3 0  9990
2 12465  81.2313 240.5879 0018223 235.2217 124.7312 15.42976374444731
SL-3 R/B
1 12904U 81103B   26109.80653302  .00003264  00000+0  14229-3 0  9999
2 12904  81.1588 165.1922 0014007 144.6118 215.6046 15.21812471979485
SL-3 R/B
1 13068U 82013B   26109.79890668  .00003403  00000+0  14536-3 0  9994
2 13068  81.1712 112.5679 0023045  44.1573 316.1493 15.22353171410607
SL-3 R/B
1 13154U 82039B   26109.80238808  .00001143  00000+0  67734-4 0  9990
2 13154  81.1506 168.5419 0028042 184.8995 175.1960 15.10285447387847
SL-3 R/B
1 13403U 82079B   26109.54281050  .00003594  00000+0  14065-3 0  9999
2 13403  81.1446 144.8256 0024685  30.9841 329.2843 15.25267620383929
SL-14 R/B
1 13553U 82092B   26109.72077316  .00000290  00000+0  29684-4 0  9992
2 13553  82.5647 103.0071 0020823 160.7680  12.1945 14.86701043335025
SL-3 R/B
1 13819U 83010B   26109.83276869  .00011531  00000+0  22218-3 0  9999
2 13819  81.1008 311.7500 0015034 263.3580  96.5955 15.47597454364305
SL-3 R/B
1 14208U 83075B   26109.78173660  .00009394  00000+0  24058-3 0  9990
2 14208  97.6130 115.9469 0023204  83.8318 276.5569 15.39347723336477
COSMOS 1536
1 14699U 84013A   26109.62241639  .00006497  00000+0  26311-3 0  9997
2 14699  82.5448  67.1341 0015749 132.8089 227.4476 15.24375475278856
SL-14 R/B
1 14820U 84027B   26109.22972424  .00000317  00000+0  33433-4 0  9996
2 14820  82.5443 206.9963 0017592 194.4593 165.6122 14.86017867253659
SL-8 R/B
1 15483U 85006B   26109.57849405  .00000158  00000+0  61010-4 0  9995
2 15483  74.0462 185.9110 0017191  90.2405  13.0931 14.37809148159906
SL-12 R/B(2)
1 15772U 85042D   26109.16236237 -.00000007  00000+0  18361-4 0  9999
2 15772  71.1103   2.2224 0033214  61.0454 100.1294 14.21993735120141
SL-14 R/B
1 15945U 85069B   26109.60598607  .00000305  00000+0  31632-4 0  9997
2 15945  82.5284 346.4688 0020152  59.3649 300.9552 14.86473210178916
SL-16 R/B
1 16182U 85097B   26109.61062965  .00000010  00000+0  28790-4 0  9990
2 16182  71.0038  54.3987 0008408 209.8205 322.4800 14.16607090 93028
