[{"OBJECT_NAME":"SL-8 R/B","OBJECT_ID":"1979-089B","EPOCH":"2026-04-19T19:20:31.057728","MEAN_MOTION":14.42376483,"ECCENTRICITY":0.0015883,"INCLINATION":74.0712,"RA_OF_ASC_NODE":14.9322,"ARG_OF_PERICENTER":180.4853,"MEAN_ANOMALY":179.6291,"EPHEMERIS_TYPE":0,"CLASSIFICATION_TYPE":"U","NORAD_CAT_ID":11574,"ELEMENT_SET_NO":999,"REV_AT_EPOCH":44203,"BSTAR":5.7772e-5,"MEAN_MOTION_DOT":1.65e-6,"MEAN_MOTION_DDOT":0},{"OBJECT_NAME":"SL-14 R/B","OBJECT_ID":"1980-005B","EPOCH":"2026-04-19T19:13:02.531136","MEAN_MOTION":14.90976075,"ECCENTRICITY":0.0016417,"INCLINATION":82.5117,"RA_OF_ASC_NODE":268.2248,"ARG_OF_PERICENTER":31.3152,"MEAN_ANOMALY":328.9041,"EPHEMERIS_TYPE":0,"CLASSIFICATION_TYPE":"U","NORAD_CAT_ID":11672,"ELEMENT_SET_NO":999,"REV_AT_EPOCH":48261,"BSTAR":3.7699e-5,"MEAN_MOTION_DOT":3.99e-6,"MEAN_MOTION_DDOT":0},{"OBJECT_NAME":"SL-8 R/B","OBJECT_ID":"1981-003B","EPOCH":"2026-04-19T20:05:04.850016","MEAN_MOTION":15.12674817,"ECCENTRICITY":0.0257078,"INCLINATION":82.9373,"RA_OF_ASC_NODE":251.9197,"ARG_OF_PERICENTER":35.6701,"MEAN_ANOMALY":326.1404,"EPHEMERIS_TYPE":0,"CLASSIFICATION_TYPE":"U","NORAD_CAT_ID":12139,"ELEMENT_SET_NO":999,"REV_AT_EPOCH":32089,"BSTAR":0.00035137,"MEAN_MOTION_DOT":0.00014153,"MEAN_MOTION_DDOT":0},{"OBJECT_NAME":"SL-3 R/B","OBJECT_ID":"1981-046B","EPOCH":"2026-04-19T14:06:17.541792","MEAN_MOTION":15.42976374,"ECCENTRICITY":0.00182236,"INCLINATION":81.2313,"RA_OF_ASC_NODE":240.5879,"ARG_OF_PERICENTER":235.2217,"MEAN_ANOMALY":124.7312,"EPHEMERIS_TYPE":0,"CLASSIFICATION_TYPE":"U","NORAD_CAT_ID":12465,"ELEMENT_SET_NO":999,"REV_AT_EPOCH":44473,"BSTAR":0.00026568757,"MEAN_MOTION_DOT":0.00011802,"MEAN_MOTION_DDOT":0},{"OBJECT_NAME":"SL-3 R/B","OBJECT_ID":"1981-103B","EPOCH":"2026-04-19T19:21:24.452928","MEAN_MOTION":15.21812471,"ECCENTRICITY":0.0014007,"INCLINATION":81.1588,"RA_OF_ASC_NODE":165.1922,"ARG_OF_PERICENTER":144.6118,"MEAN_ANOMALY":215.6046,"EPHEMERIS_TYPE":0,"CLASSIFICATION_TYPE":"U","NORAD_CAT_ID":12904,"ELEMENT_SET_NO":999,"REV_AT_EPOCH":97948,"BSTAR":0.00014229,"MEAN_MOTION_DOT":3.264e-5,"MEAN_MOTION_DDOT":0},{"OBJECT_NAME":"SL-3 R/B","OBJECT_ID":"1982-013B","EPOCH":"2026-04-19T19:10:25.537152","MEAN_MOTION":15.22353171,"ECCENTRICITY":0.0023045,"INCLINATION":81.1712,"RA_OF_ASC_NODE":112.5679,"ARG_OF_PERICENTER":44.1573,"MEAN_ANOMALY":316.1493,"EPHEMERIS_TYPE":0,"CLASSIFICATION_TYPE":"U","NORAD_CAT_ID":13068,"ELEMENT_SET_NO":999,"REV_AT_EPOCH":41060,"BSTAR":0.00014536,"MEAN_MOTION_DOT":3.403e-5,"MEAN_MOTION_DDOT":0},{"OBJECT_NAME":"SL-3 R/B","OBJECT_ID":"1982-039B","EPOCH":"2026-04-19T19:15:26.330112","MEAN_MOTION":15.10285447,"ECCENTRICITY":0.0028042,"INCLINATION":81.1506,"RA_OF_ASC_NODE":168.5419,"ARG_OF_PERICENTER":184.8995,"MEAN_ANOMALY":175.196,"EPHEMERIS_TYPE":0,"CLASSIFICATION_TYPE":"U","NORAD_CAT_ID":13154,"ELEMENT_SET_NO":999,"REV_AT_EPOCH":38784,"BSTAR":6.7734e-5,"MEAN_MOTION_DOT":1.143e-5,"MEAN_MOTION_DDOT":0},{"OBJECT_NAME":"SL-3 R/B","OBJECT_ID":"1982-079B","EPOCH":"2026-04-19T13:01:38.827200","MEAN_MOTION":15.2526762,"ECCENTRICITY":0.00246857,"INCLINATION":81.1446,"RA_OF_ASC_NODE":144.8256,"ARG_OF_PERICENTER":30.9841,"MEAN_ANOMALY":329.2843,"EPHEMERIS_TYPE":0,"CLASSIFICATION_TYPE":"U","NORAD_CAT_ID":13403,"ELEMENT_SET_NO":999,"REV_AT_EPOCH":38392,"BSTAR":0.00014065421,"MEAN_MOTION_DOT":3.594e-5,"MEAN_MOTION_DDOT":0},{"OBJECT_NAME":"SL-14 R/B","OBJECT_ID":"1982-092B","EPOCH":"2026-04-19T17:17:54.801024","MEAN_MOTION":14.86701043,"ECCENTRICITY":0.0020823,"INCLINATION":82.5647,"RA_OF_ASC_NODE":103.0071,"ARG_OF_PERICENTER":160.768,"MEAN_ANOMALY":12.1945,"EPHEMERIS_TYPE":0,"CLASSIFICATION_TYPE":"U","NORAD_CAT_ID":13553,"ELEMENT_SET_NO":999,"REV_AT_EPOCH":33502,"BSTAR":2.9684e-5,"MEAN_MOTION_DOT":2.9e-6,"MEAN_MOTION_DDOT":0},{"OBJECT_NAME":"SL-3 R/B","OBJECT_ID":"1983-010B","EPOCH":"2026-04-19T19:59:11.214816","MEAN_MOTION":15.47597454,"ECCENTRICITY":0.0015034,"INCLINATION":81.1008,"RA_OF_ASC_NODE":311.75,"ARG_OF_PERICENTER":263.358,"MEAN_ANOMALY":96.5955,"EPHEMERIS_TYPE":0,"CLASSIFICATION_TYPE":"U","NORAD_CAT_ID":13819,"ELEMENT_SET_NO":999,"REV_AT_EPOCH":36430,"BSTAR":0.00022218,"MEAN_MOTION_DOT":0.00011531,"MEAN_MOTION_DDOT":0},{"OBJECT_NAME":"SL-3 R/B","OBJECT_ID":"1983-075B","EPOCH":"2026-04-19T18:45:42.042240","MEAN_MOTION":15.39347723,"ECCENTRICITY":0.0023204,"INCLINATION":97.613,"RA_OF_ASC_NODE":115.9469,"ARG_OF_PERICENTER":83.8318,"MEAN_ANOMALY":276.5569,"EPHEMERIS_TYPE":0,"CLASSIFICATION_TYPE":"U","NORAD_CAT_ID":14208,"ELEMENT_SET_NO":999,"REV_AT_EPOCH":33647,"BSTAR":0.00024058,"MEAN_MOTION_DOT":9.394e-5,"MEAN_MOTION_DDOT":0},{"OBJECT_NAME":"COSMOS 1536","OBJECT_ID":"1984-013A","EPOCH":"2026-04-19T14:56:16.776096","MEAN_MOTION":15.24375475,"ECCENTRICITY":0.0015749,"INCLINATION":82.5448,"RA_OF_ASC_NODE":67.1341,"ARG_OF_PERICENTER":132.8089,"MEAN_ANOMALY":227.4476,"EPHEMERIS_TYPE":0,"CLASSIFICATION_TYPE":"U","NORAD_CAT_ID":14699,"ELEMENT_SET_NO":999,"REV_AT_EPOCH":27885,"BSTAR":0.00026311,"MEAN_MOTION_DOT":6.497e-5,"MEAN_MOTION_DDOT":0},{"OBJECT_NAME":"SL-14 R/B","OBJECT_ID":"1984-027B","EPOCH":"2026-04-19T05:30:48.174336","MEAN_MOTION":14.86017867,"ECCENTRICITY":0.00175929,"INCLINATION":82.5443,"RA_OF_ASC_NODE":206.9963,"ARG_OF_PERICENTER":194.4593,"MEAN_ANOMALY":165.6122,"EPHEMERIS_TYPE":0,"CLASSIFICATION_TYPE":"U","NORAD_CAT_ID":14820,"ELEMENT_SET_NO":999,"REV_AT_EPOCH":25365,"BSTAR":3.3433162e-5,"MEAN_MOTION_DOT":3.17e-6,"MEAN_MOTION_DDOT":0},{"OBJECT_NAME":"SL-8 R/B","OBJECT_ID":"1985-006B","EPOCH":"2026-04-19T13:53:01.885920","MEAN_MOTION":14.37809148,"ECCENTRICITY":0.00171916,"INCLINATION":74.0462,"RA_OF_ASC_NODE":185.911,"ARG_OF_PERICENTER":90.2405,"MEAN_ANOMALY":13.0931,"EPHEMERIS_TYPE":0,"CLASSIFICATION_TYPE":"U","NORAD_CAT_ID":15483,"ELEMENT_SET_NO":999,"REV_AT_EPOCH":15990,"BSTAR":6.100977e-5,"MEAN_MOTION_DOT":1.58e-6,"MEAN_MOTION_DDOT":0},{"OBJECT_NAME":"SL-12 R/B(2)","OBJECT_ID":"1985-042D","EPOCH":"2026-04-19T03:53:48.108768","MEAN_MOTION":14.21993735,"ECCENTRICITY":0.0033214,"INCLINATION":71.1103,"RA_OF_ASC_NODE":2.2224,"ARG_OF_PERICENTER":61.0454,"MEAN_ANOMALY":100.1294,"EPHEMERIS_TYPE":0,"CLASSIFICATION_TYPE":"U","NORAD_CAT_ID":15772,"ELEMENT_SET_NO":999,"REV_AT_EPOCH":12014,"BSTAR":1.836102e-5,"MEAN_MOTION_DOT":-7.0e-8,"MEAN_MOTION_DDOT":0},{"OBJECT_NAME":"SL-14 R/B","OBJECT_ID":"1985-069B","EPOCH":"2026-04-19T14:32:37.196448","MEAN_MOTION":14.8647321,"ECCENTRICITY":0.00201525,"INCLINATION":82.5284,"RA_OF_ASC_NODE":346.4688,"ARG_OF_PERICENTER":59.3649,"MEAN_ANOMALY":300.9552,"EPHEMERIS_TYPE":0,"CLASSIFICATION_TYPE":"U","NORAD_CAT_ID":15945,"ELEMENT_SET_NO":999,"REV_AT_EPOCH":17891,"BSTAR":3.1632032e-5,"MEAN_MOTION_DOT":3.05e-6,"MEAN_MOTION_DDOT":0},{"OBJECT_NAME":"SL-16 R/B","OBJECT_ID":"1985-097B","EPOCH":"2026-04-19T14:39:18.401760","MEAN_MOTION":14.1660709,"ECCENTRICITY":0.00084084,"INCLINATION":71.0038,"RA_OF_ASC_NODE":54.3987,"ARG_OF_PERICENTER":209.8205,"MEAN_ANOMALY":322.48,"EPHEMERIS_TYPE":0,"CLASSIFICATION_TYPE":"U","NORAD_CAT_ID":16182,"ELEMENT_SET_NO":999,"REV_AT_EPOCH":9302,"BSTAR":2.8789888e-5,"MEAN_MOTION_DOT":1.0e-7,"MEAN_MOTION_DDOT":0}]
